DMSP 5D-3 F16 (USA 172) 
1 28054U 03048A   26191.32130787 -.00000047  00000+0 -11106-5 0  9990
2 28054  98.9887 215.3020 0008202  83.1201 109.6920 14.14484867172756
METEOSAT-9 (MSG-2)      
1 28912U 05049B   26191.21945689  .00000126  00000+0  00000+0 0  9990
2 28912   9.4108  53.9352 0002026 358.4708   0.4202  1.00269823  7228
DMSP 5D-3 F17 (USA 191) 
1 29522U 06050A   26191.29226145 -.00000011  00000+0  16908-4 0  9991
2 29522  98.7384 197.3900 0010025 357.1163   2.9951 14.14995928 15693
FENGYUN 3A              
1 32958U 08026A   26190.74299394  .00000025  00000+0  32429-4 0  9998
2 32958  98.6887 131.1547 0009815  65.9784 294.2419 14.19575738938606
GOES 14                 
1 35491U 09033A   26191.30709832 -.00000344  00000+0  00000+0 0  9998
2 35491   1.7463  82.7556 0001914  38.8015  45.3310  1.00100646  6828
DMSP 5D-3 F18 (USA 210) 
1 35951U 09057A   26191.26511056  .00000201  00000+0  12733-3 0  9990
2 35951  98.9052 171.9856 0010935 179.3478 180.7711 14.14909512862852
EWS-G2 (GOES 15)        
1 36411U 10008A   26191.18914152  .00000032  00000+0  00000+0 0  9997
2 36411   1.3378  82.5274 0005228  52.6779 284.3753  1.00268016 59864
COMS 1                  
1 36744U 10032A   26191.06434595 -.00000223  00000+0  00000+0 0  9991
2 36744   4.8608  75.0799 0011329  14.8797 203.6336  0.99169083 51319
FENGYUN 3B              
1 37214U 10059A   26191.30117529 -.00000028  00000+0  88306-5 0  9999
2 37214  98.9611 237.4125 0023052 119.8283  11.9367 14.14845541810699
SUOMI NPP               
1 37849U 11061A   26191.24847878  .00000026  00000+0  33600-4 0  9990
2 37849  98.7956 131.9676 0000580 248.7249 111.3865 14.19522037761710
METEOSAT-10 (MSG-3)     
1 38552U 12035B   26191.28179154 -.00000001  00000+0  00000+0 0  9990
2 38552   4.7235  60.9019 0001114  19.3567 309.4606  1.00269960 51084
METOP-B                 
1 38771U 12049A   26191.27783374  .00000048  00000+0  41938-4 0  9992
2 38771  98.6492 242.3150 0001057 286.3191  73.7870 14.21445501716548
INSAT-3D                
1 39216U 13038B   26191.30735832 -.00000330  00000+0  00000+0 0  9991
2 39216   1.9827  82.2494 0000503  77.9398   8.2191  1.00270856 47315
FENGYUN 3C              
1 39260U 13052A   26191.29535005  .00000026  00000+0  34547-4 0  9993
2 39260  98.4994 164.1108 0013872 320.9270  39.0902 14.15760117661830
METEOR-M 2              
1 40069U 14037A   26191.30386685  .00000081  00000+0  56109-4 0  9995
2 40069  98.5127 166.2248 0005450 342.7872  17.3121 14.21468539622603
HIMAWARI-8              
1 40267U 14060A   26190.88188485 -.00000264  00000+0  00000+0 0  9999
2 40267   0.0305 288.7018 0000829 203.5253 253.7182  1.00269387 42989
FENGYUN 2G              
1 40367U 14090A   26190.80719515 -.00000292  00000+0  00000+0 0  9990
2 40367   5.6923  72.5471 0004059 150.8370  94.3226  1.00262790 42228
METEOSAT-11 (MSG-4)     
1 40732U 15034A   26191.28361155  .00000069  00000+0  00000+0 0  9992
2 40732   3.2576  70.9662 0002249 352.1949 336.4015  1.00270327  7440
ELEKTRO-L 2             
1 41105U 15074A   26190.92243847 -.00000112  00000+0  00000+0 0  9998
2 41105   6.7473  70.2440 0000797 224.6641 310.5088  1.00272734 38737
SENTINEL-3A             
1 41335U 16011A   26191.28929382  .00000044  00000+0  36238-4 0  9990
2 41335  98.6239 258.3400 0001396  91.6068 268.5272 14.26738918541355
INSAT-3DR               
1 41752U 16054A   26191.13011167 -.00000066  00000+0  00000+0 0  9995
2 41752   0.0564  89.0001 0010589 181.4377 138.4633  1.00272013 36045
HIMAWARI-9              
1 41836U 16064A   26191.28447437  .00000000  00000+0  00000+0 0  9995
2 41836   0.0237  41.9433 0002433 138.5658 350.8758  1.00270260 35448
GOES 16                 
1 41866U 16071A   26191.31023802 -.00000081  00000+0  00000+0 0  9996
2 41866   0.3906  85.5357 0000510  92.4564 117.2418  1.00271008 35331
FENGYUN 4A              
1 41882U 16077A   26191.30623166 -.00000348  00000+0  00000+0 0  9994
2 41882   2.3775  80.0332 0008382 158.6826 283.5410  1.00271027 35160
CYGFM05                 
1 41884U 16078A   26191.19507238  .00019825  00000+0  25867-3 0  9996
2 41884  34.9560 108.1176 0006952 348.7784  11.2785 15.57691300532349
CYGFM04                 
1 41885U 16078B   26191.02812061  .00024931  00000+0  26662-3 0  9990
2 41885  34.9323  75.7330 0004955  27.0216 333.0768 15.62848724532577
CYGFM02                 
1 41886U 16078C   26190.98346970  .00031246  00000+0  29346-3 0  9995
2 41886  34.9401  69.8749 0005757  30.7043 329.4020 15.66077033532743
CYGFM01                 
1 41887U 16078D   26191.17349868  .00020177  00000+0  25625-3 0  9994
2 41887  34.9391 109.1272 0006861 341.9889  18.0591 15.58402965532294
CYGFM08                 
1 41888U 16078E   26191.09240925  .00023844  00000+0  27131-3 0  9998
2 41888  34.9427  88.6229 0007107  15.7318 344.3628 15.61248785532552
CYGFM07                 
1 41890U 16078G   26191.05007458  .00022776  00000+0  25831-3 0  9997
2 41890  34.9446  77.2267 0005364  28.3700 331.7317 15.61354303532571
CYGFM03                 
1 41891U 16078H   26191.02122249  .00022871  00000+0  25950-3 0  9999
2 41891  34.9400  79.3496 0005394  12.4007 347.6851 15.61340413532549
