OBJECT_NAME,OBJECT_ID,EPOCH,MEAN_MOTION,ECCENTRICITY,INCLINATION,RA_OF_ASC_NODE,ARG_OF_PERICENTER,MEAN_ANOMALY,EPHEMERIS_TYPE,CLASSIFICATION_TYPE,NORAD_CAT_ID,ELEMENT_SET_NO,REV_AT_EPOCH,BSTAR,MEAN_MOTION_DOT,MEAN_MOTION_DDOT
DMSP 5D-3 F16 (USA 172),2003-048A,2026-07-10T07:42:40.999968,14.14484867,.00082029,98.9887,215.3020,83.1201,109.6920,0,U,28054,999,17275,-.1110603E-5,-.47E-6,0
METEOSAT-9 (MSG-2),2005-049B,2026-07-10T05:16:01.075296,1.00269823,.00020263,9.4108,53.9352,358.4708,0.4202,0,U,28912,999,722,0,.126E-5,0
DMSP 5D-3 F17 (USA 191),2006-050A,2026-07-10T07:00:51.389280,14.14995928,.00100251,98.7384,197.3900,357.1163,2.9951,0,U,29522,999,1569,.16907948E-4,-.11E-6,0
FENGYUN 3A,2008-026A,2026-07-09T17:49:54.676416,14.19575738,.00098153,98.6887,131.1547,65.9784,294.2419,0,U,32958,999,93860,.32429441E-4,.25E-6,0
GOES 14,2009-033A,2026-07-10T07:22:13.294848,1.00100646,.00019146,1.7463,82.7556,38.8015,45.3310,0,U,35491,999,682,0,-.344E-5,0
DMSP 5D-3 F18 (USA 210),2009-057A,2026-07-10T06:21:45.552384,14.14909512,.00109357,98.9052,171.9856,179.3478,180.7711,0,U,35951,999,86285,.12732564E-3,.201E-5,0
EWS-G2 (GOES 15),2010-008A,2026-07-10T04:32:21.827328,1.00268016,.00052284,1.3378,82.5274,52.6779,284.3753,0,U,36411,999,5986,0,.32E-6,0
COMS 1,2010-032A,2026-07-10T01:32:39.490080,0.99169083,.00113297,4.8608,75.0799,14.8797,203.6336,0,U,36744,999,5131,0,-.223E-5,0
FENGYUN 3B,2010-059A,2026-07-10T07:13:41.545056,14.14845541,.00230523,98.9611,237.4125,119.8283,11.9367,0,U,37214,999,81069,.8830626E-5,-.28E-6,0
SUOMI NPP,2011-061A,2026-07-10T05:57:48.566592,14.19522037,.00005803,98.7956,131.9676,248.7249,111.3865,0,U,37849,999,76171,.3359964E-4,.26E-6,0
METEOSAT-10 (MSG-3),2012-035B,2026-07-10T06:45:46.789056,1.00269960,.00011148,4.7235,60.9019,19.3567,309.4606,0,U,38552,999,5108,0,-.1E-7,0
METOP-B,2012-049A,2026-07-10T06:40:04.835136,14.21445501,.00010573,98.6492,242.3150,286.3191,73.7870,0,U,38771,999,71654,.41937735E-4,.48E-6,0
INSAT-3D,2013-038B,2026-07-10T07:22:35.758848,1.00270856,.00005035,1.9827,82.2494,77.9398,8.2191,0,U,39216,999,4731,0,-.33E-5,0
FENGYUN 3C,2013-052A,2026-07-10T07:05:18.244320,14.15760117,.00138721,98.4994,164.1108,320.9270,39.0902,0,U,39260,999,66183,.34547423E-4,.26E-6,0
METEOR-M 2,2014-037A,2026-07-10T07:17:34.095840,14.21468539,.000545,98.5127,166.2248,342.7872,17.3121,0,U,40069,999,62260,.56109319E-4,.81E-6,0
HIMAWARI-8,2014-060A,2026-07-09T21:09:54.851040,1.00269387,.00008296,0.0305,288.7018,203.5253,253.7182,0,U,40267,999,4298,0,-.264E-5,0
FENGYUN 2G,2014-090A,2026-07-09T19:22:21.660960,1.00262790,.00040599,5.6923,72.5471,150.8370,94.3226,0,U,40367,999,4222,0,-.292E-5,0
METEOSAT-11 (MSG-4),2015-034A,2026-07-10T06:48:24.037920,1.00270327,.0002249,3.2576,70.9662,352.1949,336.4015,0,U,40732,999,744,0,.69E-6,0
ELEKTRO-L 2,2015-074A,2026-07-09T22:08:18.683808,1.00272734,.00007973,6.7473,70.2440,224.6641,310.5088,0,U,41105,999,3873,0,-.112E-5,0
SENTINEL-3A,2016-011A,2026-07-10T06:56:34.986048,14.26738918,.00013965,98.6239,258.3400,91.6068,268.5272,0,U,41335,999,54135,.36237667E-4,.44E-6,0
INSAT-3DR,2016-054A,2026-07-10T03:07:21.648288,1.00272013,.0010589,0.0564,89.0001,181.4377,138.4633,0,U,41752,999,3604,0,-.66E-6,0
HIMAWARI-9,2016-064A,2026-07-10T06:49:38.585568,1.00270260,.00024335,0.0237,41.9433,138.5658,350.8758,0,U,41836,999,3544,0,0,0
GOES 16,2016-071A,2026-07-10T07:26:44.564928,1.00271008,.00005105,0.3906,85.5357,92.4564,117.2418,0,U,41866,999,3533,0,-.81E-6,0
FENGYUN 4A,2016-077A,2026-07-10T07:20:58.415424,1.00271027,.0008382,2.3775,80.0332,158.6826,283.5410,0,U,41882,999,3516,0,-.348E-5,0
CYGFM05,2016-078A,2026-07-10T04:40:54.253632,15.57691300,.00069525,34.9560,108.1176,348.7784,11.2785,0,U,41884,999,53234,.25867499E-3,.19825E-3,0
CYGFM04,2016-078B,2026-07-10T00:40:29.620704,15.62848724,.00049552,34.9323,75.7330,27.0216,333.0768,0,U,41885,999,53257,.26661811E-3,.24931E-3,0
CYGFM02,2016-078C,2026-07-09T23:36:11.782080,15.66077033,.0005757,34.9401,69.8749,30.7043,329.4020,0,U,41886,999,53274,.29345825E-3,.31246E-3,0
CYGFM01,2016-078D,2026-07-10T04:09:50.285952,15.58402965,.00068612,34.9391,109.1272,341.9889,18.0591,0,U,41887,999,53229,.25625186E-3,.20177E-3,0
CYGFM08,2016-078E,2026-07-10T02:13:04.159200,15.61248785,.00071071,34.9427,88.6229,15.7318,344.3628,0,U,41888,999,53255,.27130836E-3,.23844E-3,0
CYGFM07,2016-078G,2026-07-10T01:12:06.443712,15.61354303,.00053642,34.9446,77.2267,28.3700,331.7317,0,U,41890,999,53257,.25830571E-3,.22776E-3,0
CYGFM03,2016-078H,2026-07-10T00:30:33.623136,15.61340413,.00053947,34.9400,79.3496,12.4007,347.6851,0,U,41891,999,53254,.25950157E-3,.22871E-3,0
